start=new Date('2021-12-17T00:00:00.000Z').valueOf();
sats=[{"COUNTRY_CODE":"US","INCLINATION":"53.0542","TLE_LINE2":"2 46334  53.0542  88.2143 0001183  90.7327 269.3797 15.06408310 71861","REF_FRAME":"TEME","OBJECT_ID":"2020-062K","CLASSIFICATION_TYPE":"U","ELEMENT_SET_NO":"999","MEAN_ANOMALY":"269.3797","REV_AT_EPOCH":"7186","DECAY_DATE":null,"MEAN_MOTION":"15.06408310","SITE":"AFETR","MEAN_MOTION_DDOT":"0.0000000000000","OBJECT_NAME":"STARLINK-1725","BSTAR":"0.00018926000000","RA_OF_ASC_NODE":"88.2143","SEMIMAJOR_AXIS":"6925.323","MEAN_ELEMENT_THEORY":"SGP4","MEAN_MOTION_DOT":"0.00002539","NORAD_CAT_ID":"46334","OBJECT_TYPE":"PAYLOAD","PERIAPSIS":"546.369","ARG_OF_PERICENTER":"90.7327","EPOCH":"2021-12-16T14:51:10.435392","GP_ID":"191861020","ECCENTRICITY":"0.00011830","TIME_SYSTEM":"UTC","CENTER_NAME":"EARTH","RCS_SIZE":"LARGE","APOAPSIS":"548.007","PERIOD":"95.592","LAUNCH_DATE":"2020-09-03","TLE_LINE1":"1 46334U 20062K   21350.61887078  .00002539  00000-0  18926-3 0  9994","EPHEMERIS_TYPE":"0","FILE":"3242223"},{"ELEMENT_SET_NO":"999","REV_AT_EPOCH":"7161","MEAN_ANOMALY":"264.7212","INCLINATION":"53.0557","COUNTRY_CODE":"US","REF_FRAME":"TEME","TLE_LINE2":"2 46335  53.0557 107.3753 0001777  95.3980 264.7212 15.06398800 71619","OBJECT_ID":"2020-062L","CLASSIFICATION_TYPE":"U","SEMIMAJOR_AXIS":"6925.352","RA_OF_ASC_NODE":"107.3753","NORAD_CAT_ID":"46335","MEAN_MOTION_DOT":"0.00000160","MEAN_ELEMENT_THEORY":"SGP4","OBJECT_TYPE":"PAYLOAD","SITE":"AFETR","MEAN_MOTION":"15.06398800","DECAY_DATE":null,"MEAN_MOTION_DDOT":"0.0000000000000","OBJECT_NAME":"STARLINK-1727","BSTAR":"0.00002963000000","GP_ID":"191861770","ECCENTRICITY":"0.00017770","PERIAPSIS":"545.987","EPOCH":"2021-12-16T19:20:35.213568","ARG_OF_PERICENTER":"95.3980","PERIOD":"95.592","TLE_LINE1":"1 46335U 20062L   21350.80596312  .00000160  00000-0  29630-4 0  9997","EPHEMERIS_TYPE":"0","FILE":"3242223","LAUNCH_DATE":"2020-09-03","TIME_SYSTEM":"UTC","RCS_SIZE":"LARGE","APOAPSIS":"548.448","CENTER_NAME":"EARTH"},{"INCLINATION":"53.0557","COUNTRY_CODE":"US","TLE_LINE2":"2 46336  53.0557  88.3244 0001244  90.3659 269.7473 15.06404260 71858","REF_FRAME":"TEME","CLASSIFICATION_TYPE":"U","OBJECT_ID":"2020-062M","ELEMENT_SET_NO":"999","REV_AT_EPOCH":"7185","MEAN_ANOMALY":"269.7473","SITE":"AFETR","MEAN_MOTION":"15.06404260","DECAY_DATE":null,"MEAN_MOTION_DDOT":"0.0000000000000","OBJECT_NAME":"STARLINK-1738","BSTAR":"0.00014849000000","SEMIMAJOR_AXIS":"6925.336","RA_OF_ASC_NODE":"88.3244","NORAD_CAT_ID":"46336","MEAN_ELEMENT_THEORY":"SGP4","MEAN_MOTION_DOT":"0.00001931","OBJECT_TYPE":"PAYLOAD","PERIAPSIS":"546.339","ARG_OF_PERICENTER":"90.3659","EPOCH":"2021-12-16T14:20:40.956864","ECCENTRICITY":"0.00012440","GP_ID":"191828879","TIME_SYSTEM":"UTC","APOAPSIS":"548.062","RCS_SIZE":"LARGE","CENTER_NAME":"EARTH","PERIOD":"95.592","FILE":"3241867","TLE_LINE1":"1 46336U 20062M   21350.59769626  .00001931  00000-0  14849-3 0  9996","EPHEMERIS_TYPE":"0","LAUNCH_DATE":"2020-09-03"},{"RA_OF_ASC_NODE":"87.6469","SEMIMAJOR_AXIS":"6925.359","MEAN_ELEMENT_THEORY":"SGP4","MEAN_MOTION_DOT":"-0.00000250","NORAD_CAT_ID":"46337","OBJECT_TYPE":"PAYLOAD","DECAY_DATE":null,"SITE":"AFETR","MEAN_MOTION":"15.06396451","MEAN_MOTION_DDOT":"0.0000000000000","OBJECT_NAME":"STARLINK-1750","BSTAR":"0.00000209510000","ELEMENT_SET_NO":"999","MEAN_ANOMALY":"260.1983","REV_AT_EPOCH":"7188","COUNTRY_CODE":"US","INCLINATION":"53.0542","REF_FRAME":"TEME","TLE_LINE2":"2 46337  53.0542  87.6469 0001349  99.9158 260.1983 15.06396451 71885","CLASSIFICATION_TYPE":"U","OBJECT_ID":"2020-062N","PERIOD":"95.592","LAUNCH_DATE":"2020-09-03","EPHEMERIS_TYPE":"0","TLE_LINE1":"1 46337U 20062N   21350.74514331 -.00000250  00000-0  20951-5 0  9992","FILE":"3242223","TIME_SYSTEM":"UTC","CENTER_NAME":"EARTH","RCS_SIZE":"LARGE","APOAPSIS":"548.159","ECCENTRICITY":"0.00013490","GP_ID":"191860768","PERIAPSIS":"546.290","EPOCH":"2021-12-16T17:53:00.381984","ARG_OF_PERICENTER":"99.9158"},{"FILE":"3242223","TLE_LINE1":"1 46338U 20062P   21350.86124768  .00000248  00000-0  35531-4 0  9992","EPHEMERIS_TYPE":"0","LAUNCH_DATE":"2020-09-03","PERIOD":"95.592","TIME_SYSTEM":"UTC","APOAPSIS":"548.152","RCS_SIZE":"LARGE","CENTER_NAME":"EARTH","GP_ID":"191861520","ECCENTRICITY":"0.00013670","ARG_OF_PERICENTER":"86.6557","EPOCH":"2021-12-16T20:40:11.799552","PERIAPSIS":"546.258","SEMIMAJOR_AXIS":"6925.340","RA_OF_ASC_NODE":"107.1225","OBJECT_TYPE":"PAYLOAD","NORAD_CAT_ID":"46338","MEAN_MOTION_DOT":"0.00000248","MEAN_ELEMENT_THEORY":"SGP4","MEAN_MOTION_DDOT":"0.0000000000000","MEAN_MOTION":"15.06402768","SITE":"AFETR","DECAY_DATE":null,"BSTAR":"0.00003553100000","OBJECT_NAME":"STARLINK-1752","ELEMENT_SET_NO":"999","REV_AT_EPOCH":"7161","MEAN_ANOMALY":"273.4589","INCLINATION":"53.0554","COUNTRY_CODE":"US","OBJECT_ID":"2020-062P","CLASSIFICATION_TYPE":"U","TLE_LINE2":"2 46338  53.0554 107.1225 0001367  86.6557 273.4589 15.06402768 71612","REF_FRAME":"TEME"},{"PERIAPSIS":"546.194","EPOCH":"2021-12-16T18:26:09.073248","ARG_OF_PERICENTER":"98.2039","ECCENTRICITY":"0.00014620","GP_ID":"191861271","CENTER_NAME":"EARTH","RCS_SIZE":"LARGE","APOAPSIS":"548.219","TIME_SYSTEM":"UTC","PERIOD":"95.592","LAUNCH_DATE":"2020-09-03","FILE":"3242223","TLE_LINE1":"1 46340U 20062R   21350.76816057 -.00000228  00000-0  36110-5 0  9997","EPHEMERIS_TYPE":"0","TLE_LINE2":"2 46340  53.0536 107.5445 0001462  98.2039 261.9115 15.06402224 71606","REF_FRAME":"TEME","OBJECT_ID":"2020-062R","CLASSIFICATION_TYPE":"U","COUNTRY_CODE":"US","INCLINATION":"53.0536","MEAN_ANOMALY":"261.9115","REV_AT_EPOCH":"7160","ELEMENT_SET_NO":"999","OBJECT_NAME":"STARLINK-1759","BSTAR":"0.00000361100000","DECAY_DATE":null,"SITE":"AFETR","MEAN_MOTION":"15.06402224","MEAN_MOTION_DDOT":"0.0000000000000","MEAN_MOTION_DOT":"-0.00000228","MEAN_ELEMENT_THEORY":"SGP4","NORAD_CAT_ID":"46340","OBJECT_TYPE":"PAYLOAD","RA_OF_ASC_NODE":"107.5445","SEMIMAJOR_AXIS":"6925.342"},{"GP_ID":"191860019","ECCENTRICITY":"0.00013920","ARG_OF_PERICENTER":"91.9472","EPOCH":"2021-12-16T18:35:27.967200","PERIAPSIS":"546.268","LAUNCH_DATE":"2020-09-03","TLE_LINE1":"1 46341U 20062S   21350.77462925  .00000512  00000-0  53244-4 0  9991","FILE":"3242223","EPHEMERIS_TYPE":"0","PERIOD":"95.593","TIME_SYSTEM":"UTC","CENTER_NAME":"EARTH","APOAPSIS":"548.196","RCS_SIZE":"LARGE","ELEMENT_SET_NO":"999","MEAN_ANOMALY":"268.1677","REV_AT_EPOCH":"7189","COUNTRY_CODE":"US","INCLINATION":"53.0534","OBJECT_ID":"2020-062S","CLASSIFICATION_TYPE":"U","TLE_LINE2":"2 46341  53.0534  87.5244 0001392  91.9472 268.1677 15.06393870 71891","REF_FRAME":"TEME","RA_OF_ASC_NODE":"87.5244","SEMIMAJOR_AXIS":"6925.367","OBJECT_TYPE":"PAYLOAD","MEAN_MOTION_DOT":"0.00000512","MEAN_ELEMENT_THEORY":"SGP4","NORAD_CAT_ID":"46341","MEAN_MOTION_DDOT":"0.0000000000000","DECAY_DATE":null,"SITE":"AFETR","MEAN_MOTION":"15.06393870","BSTAR":"0.00005324400000","OBJECT_NAME":"STARLINK-1760"},{"ELEMENT_SET_NO":"999","MEAN_ANOMALY":"264.9933","REV_AT_EPOCH":"7161","COUNTRY_CODE":"US","INCLINATION":"53.0536","OBJECT_ID":"2020-062T","CLASSIFICATION_TYPE":"U","REF_FRAME":"TEME","TLE_LINE2":"2 46342  53.0536 107.3159 0001483  95.1225 264.9933 15.06397983 71611","RA_OF_ASC_NODE":"107.3159","SEMIMAJOR_AXIS":"6925.355","OBJECT_TYPE":"PAYLOAD","MEAN_MOTION_DOT":"-0.00000243","MEAN_ELEMENT_THEORY":"SGP4","NORAD_CAT_ID":"46342","MEAN_MOTION_DDOT":"0.0000000000000","DECAY_DATE":null,"MEAN_MOTION":"15.06397983","SITE":"AFETR","BSTAR":"0.00000256710000","OBJECT_NAME":"STARLINK-1762","GP_ID":"191860269","ECCENTRICITY":"0.00014830","EPOCH":"2021-12-16T19:41:49.008768","ARG_OF_PERICENTER":"95.1225","PERIAPSIS":"546.193","LAUNCH_DATE":"2020-09-03","TLE_LINE1":"1 46342U 20062T   21350.82070612 -.00000243  00000-0  25671-5 0  9992","EPHEMERIS_TYPE":"0","FILE":"3242223","PERIOD":"95.592","TIME_SYSTEM":"UTC","CENTER_NAME":"EARTH","RCS_SIZE":"LARGE","APOAPSIS":"548.247"},{"ECCENTRICITY":"0.00011600","GP_ID":"191861021","EPOCH":"2021-12-16T14:47:13.777152","ARG_OF_PERICENTER":"91.3522","PERIAPSIS":"546.398","EPHEMERIS_TYPE":"0","TLE_LINE1":"1 46343U 20062U   21350.61613168  .00000332  00000-0  41159-4 0  9995","FILE":"3242223","LAUNCH_DATE":"2020-09-03","PERIOD":"95.592","TIME_SYSTEM":"UTC","RCS_SIZE":"LARGE","APOAPSIS":"548.005","CENTER_NAME":"EARTH","ELEMENT_SET_NO":"999","REV_AT_EPOCH":"7186","MEAN_ANOMALY":"268.7600","INCLINATION":"53.0555","COUNTRY_CODE":"US","OBJECT_ID":"2020-062U","CLASSIFICATION_TYPE":"U","TLE_LINE2":"2 46343  53.0555  88.2392 0001160  91.3522 268.7600 15.06403829 71866","REF_FRAME":"TEME","SEMIMAJOR_AXIS":"6925.337","RA_OF_ASC_NODE":"88.2392","OBJECT_TYPE":"PAYLOAD","NORAD_CAT_ID":"46343","MEAN_MOTION_DOT":"0.00000332","MEAN_ELEMENT_THEORY":"SGP4","MEAN_MOTION_DDOT":"0.0000000000000","SITE":"AFETR","MEAN_MOTION":"15.06403829","DECAY_DATE":null,"BSTAR":"0.00004115900000","OBJECT_NAME":"STARLINK-1764"},{"ARG_OF_PERICENTER":"88.8772","EPOCH":"2021-12-16T18:24:50.324832","PERIAPSIS":"546.297","GP_ID":"191861771","ECCENTRICITY":"0.00012880","CENTER_NAME":"EARTH","RCS_SIZE":"LARGE","APOAPSIS":"548.081","TIME_SYSTEM":"UTC","LAUNCH_DATE":"2020-09-03","TLE_LINE1":"1 46344U 20062V   21350.76724913  .00000282  00000-0  37791-4 0  9994","EPHEMERIS_TYPE":"0","FILE":"3242223","PERIOD":"95.592","CLASSIFICATION_TYPE":"U","OBJECT_ID":"2020-062V","TLE_LINE2":"2 46344  53.0543  87.5494 0001288  88.8772 271.2365 15.06408160 71880","REF_FRAME":"TEME","COUNTRY_CODE":"US","INCLINATION":"53.0543","MEAN_ANOMALY":"271.2365","REV_AT_EPOCH":"7188","ELEMENT_SET_NO":"999","BSTAR":"0.00003779100000","OBJECT_NAME":"STARLINK-1765","MEAN_MOTION_DDOT":"0.0000000000000","DECAY_DATE":null,"SITE":"AFETR","MEAN_MOTION":"15.06408160","OBJECT_TYPE":"PAYLOAD","MEAN_ELEMENT_THEORY":"SGP4","MEAN_MOTION_DOT":"0.00000282","NORAD_CAT_ID":"46344","RA_OF_ASC_NODE":"87.5494","SEMIMAJOR_AXIS":"6925.324"}];
